NORAD_CAT_ID,OBJECT_NAME,OBJECT_TYPE,EPOCH,MEAN_MOTION,ECCENTRICITY,INCLINATION,RA_OF_ASC_NODE,ARG_OF_PERICENTER,MEAN_ANOMALY,BSTAR,MEAN_MOTION_DOT,MEAN_MOTION_DDOT,TLE_LINE0,TLE_LINE1,TLE_LINE2,SEMIMAJOR_AXIS,PERIOD,APOGEE,PERIGEE,DECAYED
52120.0,STARLINK-3534,PAYLOAD,2024-02-22 16:01:10,15.08841641,0.0001232,53.2163,188.1445,72.3834,287.7293,5.1435e-05,5.31e-06,0.0,0 STARLINK-3534,1 52120U 22029AJ  24053.66747880  .00000531  00000-0  51435-4 0  9996,2 52120  53.2163 188.1445 0001232  72.3834 287.7293 15.08841641108171,6917.875,95.437,540.593,538.888,0.0
52120.0,STARLINK-3534,PAYLOAD,2024-02-23 14:16:34,15.08843782,0.0001373,53.2174,183.9856,88.8917,271.2233,-5.3292e-05,-1.136e-05,0.0,0 STARLINK-3534,1 52120U 22029AJ  24054.59484210 -.00001136  00000-0 -53292-4 0  9991,2 52120  53.2174 183.9856 0001373  88.8917 271.2233 15.08843782108318,6917.869,95.437,540.684,538.784,0.0
52120.0,STARLINK-3534,PAYLOAD,2024-02-23 17:27:20,15.08844737,0.0001392,53.2176,183.3902,87.9736,272.1415,2.0948e-05,4.6e-07,0.0,0 STARLINK-3534,1 52120U 22029AJ  24054.72731886  .00000046  00000-0  20948-4 0  9999,2 52120  53.2176 183.3902 0001392  87.9736 272.1415 15.08844737108331,6917.866,95.437,540.694,538.768,0.0
52120.0,STARLINK-3534,PAYLOAD,2024-02-24 14:07:22,15.08830837,0.0001571,53.2174,179.5252,81.5342,278.5828,-2.4708e-05,-6.81e-06,0.0,0 STARLINK-3534,1 52120U 22029AJ  24055.58845409 -.00000681  00000-0 -24708-4 0  9996,2 52120  53.2174 179.5252 0001571  81.5342 278.5828 15.08830837108464,6917.908,95.438,540.86,538.687,0.0
52120.0,STARLINK-3534,PAYLOAD,2024-02-24 17:18:08,15.08834013,0.0001518,53.2171,178.928,73.7441,286.3719,-5.4041e-06,-3.74e-06,0.0,0 STARLINK-3534,1 52120U 22029AJ  24055.72093206 -.00000374  00000-0 -54041-5 0  9995,2 52120  53.2171 178.9280 0001518  73.7441 286.3719 15.08834013108487,6917.899,95.438,540.814,538.714,0.0
52120.0,STARLINK-3534,PAYLOAD,2024-02-25 12:22:45,15.0885014,0.0001478,53.2175,175.3625,81.9751,278.1409,0.00010155,1.329e-05,0.0,0 STARLINK-3534,1 52120U 22029AJ  24056.51579929  .00001329  00000-0  10155-3 0  9999,2 52120  53.2175 175.3625 0001478  81.9751 278.1409 15.08850140108603,6917.849,95.437,540.737,538.692,0.0
52120.0,STARLINK-3534,PAYLOAD,2024-02-25 13:58:08,15.08848985,0.0001143,53.2149,175.0636,85.1094,275.0028,0.00014013,1.944e-05,0.0,0 STARLINK-3534,1 52120U 22029AJ  24056.58203719  .00001944  00000-0  14013-3 0  9997,2 52120  53.2149 175.0636 0001143  85.1094 275.0028 15.08848985108616,6917.853,95.437,540.509,538.927,0.0
52120.0,STARLINK-3534,PAYLOAD,2024-02-25 15:33:30,15.08860264,0.0001347,53.2172,174.7655,82.0072,278.1073,0.00018713,2.693e-05,0.0,0 STARLINK-3534,1 52120U 22029AJ  24056.64826861  .00002693  00000-0  18713-3 0  9996,2 52120  53.2172 174.7655 0001347  82.0072 278.1073 15.08860264108626,6917.818,95.436,540.615,538.752,0.0
52120.0,STARLINK-3534,PAYLOAD,2024-02-26 01:05:50,15.08843108,0.0001327,53.2184,172.9815,86.4028,273.7115,5.6031e-05,6.04e-06,0.0,0 STARLINK-3534,1 52120U 22029AJ  24057.04572166  .00000604  00000-0  56031-4 0  9993,2 52120  53.2184 172.9815 0001327  86.4028 273.7115 15.08843108108686,6917.871,95.437,540.654,538.818,0.0
52120.0,STARLINK-3534,PAYLOAD,2024-02-26 12:13:33,15.08831888,0.0001389,53.2168,170.9042,73.3452,286.7692,-6.7716e-05,-1.365e-05,0.0,0 STARLINK-3534,1 52120U 22029AJ  24057.50941715 -.00001365  00000-0 -67716-4 0  9993,2 52120  53.2168 170.9042 0001389  73.3452 286.7692 15.08831888108756,6917.905,95.438,540.731,538.809,0.0
52120.0,STARLINK-3534,PAYLOAD,2024-02-26 13:48:56,15.08833235,0.0001519,53.217,170.6069,73.4214,286.6945,-5.4844e-05,-1.161e-05,0.0,0 STARLINK-3534,1 52120U 22029AJ  24057.57565647 -.00001161  00000-0 -54844-4 0  9998,2 52120  53.2170 170.6069 0001519  73.4214 286.6945 15.08833235108766,6917.901,95.438,540.817,538.715,0.0
52120.0,STARLINK-3534,PAYLOAD,2024-02-27 12:04:19,15.08852297,0.000155,53.2173,166.4393,95.2752,264.8418,-5.5799e-05,-1.176e-05,0.0,0 STARLINK-3534,1 52120U 22029AJ  24058.50300318 -.00001176  00000-0 -55799-4 0  9990,2 52120  53.2173 166.4393 0001550  95.2752 264.8418 15.08852297108904,6917.843,95.437,540.78,538.636,0.0
52120.0,STARLINK-3534,PAYLOAD,2024-02-27 13:39:42,15.0885271,0.0001511,53.2172,166.1426,93.4359,266.6806,-2.1816e-05,-6.35e-06,0.0,0 STARLINK-3534,1 52120U 22029AJ  24058.56924150 -.00000635  00000-0 -21816-4 0  9994,2 52120  53.2172 166.1426 0001511  93.4359 266.6806 15.08852710108919,6917.842,95.437,540.752,538.661,0.0
52120.0,STARLINK-3534,PAYLOAD,2024-02-28 11:55:07,15.08829795,0.0001369,53.217,161.9802,77.9924,282.1222,0.00010701,1.415e-05,0.0,0 STARLINK-3534,1 52120U 22029AJ  24059.49661419  .00001415  00000-0  10701-3 0  9998,2 52120  53.2170 161.9802 0001369  77.9924 282.1222 15.08829795109052,6917.912,95.438,540.724,538.83,0.0
52120.0,STARLINK-3534,PAYLOAD,2024-02-28 13:30:30,15.0883746,0.0001417,53.2167,161.6804,98.1229,261.9924,9.07e-05,1.156e-05,0.0,0 STARLINK-3534,1 52120U 22029AJ  24059.56284910  .00001156  00000-0  90700-4 0  9993,2 52120  53.2167 161.6804 0001417  98.1229 261.9924 15.08837460109067,6917.888,95.438,540.733,538.773,0.0
52120.0,STARLINK-3534,PAYLOAD,2024-02-29 13:21:16,15.08848175,0.0001324,53.2164,157.2243,93.9213,266.193,3.8677e-05,3.28e-06,0.0,0 STARLINK-3534,1 52120U 22029AJ  24060.55644535  .00000328  00000-0  38677-4 0  9992,2 52120  53.2164 157.2243 0001324  93.9213 266.1930 15.08848175109211,6917.855,95.437,540.636,538.804,0.0
52120.0,STARLINK-3534,PAYLOAD,2024-02-29 22:53:35,15.08843599,0.0001313,53.2163,155.4405,92.9867,267.1276,-2.8994e-05,-7.49e-06,0.0,0 STARLINK-3534,1 52120U 22029AJ  24060.95388886 -.00000749  00000-0 -28994-4 0  9990,2 52120  53.2163 155.4405 0001313  92.9867 267.1276 15.08843599109277,6917.869,95.437,540.643,538.826,0.0
52120.0,STARLINK-3534,PAYLOAD,2024-03-01 13:12:04,15.08842299,0.0001401,53.2163,152.7629,102.8473,257.2676,8.507e-05,1.066e-05,0.0,0 STARLINK-3534,1 52120U 22029AJ  24061.55004819  .00001066  00000-0  85070-4 0  9997,2 52120  53.2163 152.7629 0001401 102.8473 257.2676 15.08842299109367,6917.873,95.437,540.708,538.769,0.0
52120.0,STARLINK-3534,PAYLOAD,2024-03-02 11:27:27,15.08843819,0.0001417,53.2159,148.5996,97.7548,262.3605,8.1453e-05,1.009e-05,0.0,0 STARLINK-3534,1 52120U 22029AJ  24062.47740710  .00001009  00000-0  81453-4 0  9994,2 52120  53.2159 148.5996 0001417  97.7548 262.3605 15.08843819109508,6917.869,95.437,540.714,538.753,0.0
52120.0,STARLINK-3534,PAYLOAD,2024-03-02 13:02:50,15.08846976,0.0001402,53.2166,148.3026,94.2801,265.8351,9.2212e-05,1.18e-05,0.0,0 STARLINK-3534,1 52120U 22029AJ  24062.54364491  .00001180  00000-0  92212-4 0  9995,2 52120  53.2166 148.3026 0001402  94.2801 265.8351 15.08846976109510,6917.859,95.437,540.694,538.754,0.0
52120.0,STARLINK-3534,PAYLOAD,2024-03-03 11:18:15,15.08836269,0.0001497,53.2178,144.1404,80.2448,279.8714,3.5793e-05,2.82e-06,0.0,0 STARLINK-3534,1 52120U 22029AJ  24063.47101483  .00000282  00000-0  35793-4 0  9991,2 52120  53.2178 144.1404 0001497  80.2448 279.8714 15.08836269109650,6917.892,95.438,540.792,538.721,0.0
52120.0,STARLINK-3534,PAYLOAD,2024-03-03 12:53:38,15.0883741,0.0001443,53.2177,143.842,87.6992,272.4165,2.9309e-05,1.79e-06,0.0,0 STARLINK-3534,1 52120U 22029AJ  24063.53725344  .00000179  00000-0  29309-4 0  9997,2 52120  53.2177 143.8420 0001443  87.6992 272.4165 15.08837410109668,6917.888,95.438,540.752,538.755,0.0
52120.0,STARLINK-3534,PAYLOAD,2024-03-04 11:09:01,15.088527,0.000181,53.2172,139.6829,70.092,290.0267,0.00012018,1.626e-05,0.0,0 STARLINK-3534,1 52120U 22029AJ  24064.46460072  .00001626  00000-0  12018-3 0  9990,2 52120  53.2172 139.6829 0001810  70.0920 290.0267 15.08852700109808,6917.842,95.437,540.959,538.454,0.0
52120.0,STARLINK-3534,PAYLOAD,2024-03-04 12:44:23,15.08861448,0.0002044,53.2179,139.3827,58.4014,301.7177,0.00023736,3.494e-05,0.0,0 STARLINK-3534,1 52120U 22029AJ  24064.53083306  .00003494  00000-0  23736-3 0  9993,2 52120  53.2179 139.3827 0002044  58.4014 301.7177 15.08861448109814,6917.815,95.436,541.094,538.266,0.0
52120.0,STARLINK-3534,PAYLOAD,2024-03-04 22:16:44,15.08837295,0.0001373,53.2175,137.597,91.5203,268.5947,7.0701e-05,8.37e-06,0.0,0 STARLINK-3534,1 52120U 22029AJ  24064.92828801  .00000837  00000-0  70701-4 0  9996,2 52120  53.2175 137.5970 0001373  91.5203 268.5947 15.08837295109875,6917.889,95.438,540.703,538.804,0.0
52120.0,STARLINK-3534,PAYLOAD,2024-03-05 14:10:37,15.08803943,0.000141,53.2165,134.623,100.0532,260.0619,-0.00039479,-6.559e-05,0.0,0 STARLINK-3534,1 52120U 22029AJ  24065.59071357 -.00006559  00000-0 -39479-3 0  9991,2 52120  53.2165 134.6230 0001410 100.0532 260.0619 15.08803943109971,6917.991,95.44,540.831,538.88,0.0
52120.0,STARLINK-3534,PAYLOAD,2024-03-06 04:29:05,15.08836341,0.0001531,53.2163,131.944,105.2538,254.8623,-0.0001442,-2.582e-05,0.0,0 STARLINK-3534,1 52120U 22029AJ  24066.18686387 -.00002582  00000-0 -14420-3 0  9993,2 52120  53.2163 131.9440 0001531 105.2538 254.8623 15.08836341110065,6917.892,95.438,540.816,538.697,0.0
52120.0,STARLINK-3534,PAYLOAD,2024-03-06 09:15:13,15.08852684,0.0002129,53.2167,131.0527,121.1649,238.9552,0.0001294,1.772e-05,0.0,0 STARLINK-3534,1 52120U 22029AJ  24066.38557547  .00001772  00000-0  12940-3 0  9993,2 52120  53.2167 131.0527 0002129 121.1649 238.9552 15.08852684110095,6917.842,95.437,541.179,538.234,0.0
52120.0,STARLINK-3534,PAYLOAD,2024-03-07 04:19:52,15.08837035,0.0002056,53.2169,127.4848,124.0686,236.0502,0.00052621,8.096e-05,0.0,0 STARLINK-3534,1 52120U 22029AJ  24067.18046463  .00008096  00000-0  52621-3 0  9998,2 52120  53.2169 127.4848 0002056 124.0686 236.0502 15.08837035110215,6917.889,95.438,541.177,538.332,0.0
52120.0,STARLINK-3534,PAYLOAD,2024-03-07 10:41:25,15.08818093,0.0001592,53.2169,126.295,101.8054,258.3117,0.00031807,4.775e-05,0.0,0 STARLINK-3534,1 52120U 22029AJ  24067.44542950  .00004775  00000-0  31807-3 0  9992,2 52120  53.2169 126.2950 0001592 101.8054 258.3117 15.08818093110258,6917.947,95.439,540.914,538.711,0.0
